{"type": "FeatureCollection", "features": [ {"type": "Feature", "properties": {"norad_id": 66867, "name": "STARLINK-36101", "group": "last-30-days", "lat": -21.411038745193753, "lon": -66.94720895380252, "alt_km": 346.7232280486123, "timestamp": "2025-12-18T07:01:53.342047+00:00", "meta": {"OBJECT_NAME": "STARLINK-36101", "OBJECT_ID": "2025-281V", "EPOCH": "2025-12-17T22:00:01.999584", "MEAN_MOTION": 15.75243432, "ECCENTRICITY": 0.00017516, "INCLINATION": 43.0009, "RA_OF_ASC_NODE": 90.452, "ARG_OF_PERICENTER": 293.5049, "MEAN_ANOMALY": 302.5149, "EPHEMERIS_TYPE": 0, "CLASSIFICATION_TYPE": "U", "NORAD_CAT_ID": 66867, "ELEMENT_SET_NO": 999, "REV_AT_EPOCH": 207, "BSTAR": -0.002508162, "MEAN_MOTION_DOT": -0.00372586, "MEAN_MOTION_DDOT": 0}, "tle": {"line1": "1 66867U 25281V   25351.91668981 -.00372586  00000+0 -25082-2 0  9996", "line2": "2 66867  43.0009  90.4520 0001751 293.5049 302.5149 15.75243432  2076"}}, "geometry": {"type": "Point", "coordinates": [-66.94720895380252, -21.411038745193753]}}, {"type": "Feature", "properties": {"norad_id": 66868, "name": "STARLINK-36108", "group": "last-30-days", "lat": -22.611472204603135, "lon": -65.28888020470197, "alt_km": 346.0556929415043, "timestamp": "2025-12-18T07:01:53.342059+00:00", "meta": {"OBJECT_NAME": "STARLINK-36108", "OBJECT_ID": "2025-281W", "EPOCH": "2025-12-17T22:00:01.999584", "MEAN_MOTION": 15.75102762, "ECCENTRICITY": 0.00016649, "INCLINATION": 43.0009, "RA_OF_ASC_NODE": 90.4466, "ARG_OF_PERICENTER": 267.8335, "MEAN_ANOMALY": 330.1737, "EPHEMERIS_TYPE": 0, "CLASSIFICATION_TYPE": "U", "NORAD_CAT_ID": 66868, "ELEMENT_SET_NO": 999, "REV_AT_EPOCH": 207, "BSTAR": -0.00054452263, "MEAN_MOTION_DOT": -0.00083531, "MEAN_MOTION_DDOT": 0}, "tle": {"line1": "1 66868U 25281W   25351.91668981 -.00083531  00000+0 -54452-3 0  9990", "line2": "2 66868  43.0009  90.4466 0001664 267.8335 330.1737 15.75102762  2071"}}, "geometry": {"type": "Point", "coordinates": [-65.28888020470197, -22.611472204603135]}}, {"type": "Feature", "properties": {"norad_id": 66869, "name": "STARLINK-36092", "group": "last-30-days", "lat": -23.751524646591903, "lon": -63.66347060698114, "alt_km": 346.29829407131365, "timestamp": "2025-12-18T07:01:53.342071+00:00", "meta": {"OBJECT_NAME": "STARLINK-36092", "OBJECT_ID": "2025-281X", "EPOCH": "2025-12-17T22:00:01.999584", "MEAN_MOTION": 15.75037772, "ECCENTRICITY": 0.00022156, "INCLINATION": 43.0007, "RA_OF_ASC_NODE": 90.4414, "ARG_OF_PERICENTER": 284.4069, "MEAN_ANOMALY": 315.5409, "EPHEMERIS_TYPE": 0, "CLASSIFICATION_TYPE": "U", "NORAD_CAT_ID": 66869, "ELEMENT_SET_NO": 999, "REV_AT_EPOCH": 226, "BSTAR": -3.0957349e-05, "MEAN_MOTION_DOT": -5.231e-05, "MEAN_MOTION_DDOT": 0}, "tle": {"line1": "1 66869U 25281X   25351.91668981 -.00005231  00000+0 -30957-4 0  9997", "line2": "2 66869  43.0007  90.4414 0002215 284.4069 315.5409 15.75037772  2267"}}, "geometry": {"type": "Point", "coordinates": [-63.66347060698114, -23.751524646591903]}}, {"type": "Feature", "properties": {"norad_id": 66870, "name": "STARLINK-36114", "group": "last-30-days", "lat": -24.906980326711565, "lon": -61.960241175087184, "alt_km": 345.9432448607495, "timestamp": "2025-12-18T07:01:53.342081+00:00", "meta": {"OBJECT_NAME": "STARLINK-36114", "OBJECT_ID": "2025-281Y", "EPOCH": "2025-12-17T22:00:01.999584", "MEAN_MOTION": 15.75074479, "ECCENTRICITY": 0.00022381, "INCLINATION": 43.0008, "RA_OF_ASC_NODE": 90.4366, "ARG_OF_PERICENTER": 267.8392, "MEAN_ANOMALY": 334.0177, "EPHEMERIS_TYPE": 0, "CLASSIFICATION_TYPE": "U", "NORAD_CAT_ID": 66870, "ELEMENT_SET_NO": 999, "REV_AT_EPOCH": 213, "BSTAR": -0.00031691529, "MEAN_MOTION_DOT": -0.00048958, "MEAN_MOTION_DDOT": 0}, "tle": {"line1": "1 66870U 25281Y   25351.91668981 -.00048958  00000+0 -31692-3 0  9998", "line2": "2 66870  43.0008  90.4366 0002238 267.8392 334.0177 15.75074479  2134"}}, "geometry": {"type": "Point", "coordinates": [-61.960241175087184, -24.906980326711565]}}, {"type": "Feature", "properties": {"norad_id": 66871, "name": "STARLINK-36095", "group": "last-30-days", "lat": -26.030866436483578, "lon": -60.24369089399129, "alt_km": 346.5278195449746, "timestamp": "2025-12-18T07:01:53.342091+00:00", "meta": {"OBJECT_NAME": "STARLINK-36095", "OBJECT_ID": "2025-281Z", "EPOCH": "2025-12-17T22:00:01.999584", "MEAN_MOTION": 15.75068555, "ECCENTRICITY": 0.0001733, "INCLINATION": 43.0009, "RA_OF_ASC_NODE": 90.4314, "ARG_OF_PERICENTER": 287.3144, "MEAN_ANOMALY": 316.4602, "EPHEMERIS_TYPE": 0, "CLASSIFICATION_TYPE": "U", "NORAD_CAT_ID": 66871, "ELEMENT_SET_NO": 999, "REV_AT_EPOCH": 226, "BSTAR": -0.00020742247, "MEAN_MOTION_DOT": -0.0003226, "MEAN_MOTION_DDOT": 0}, "tle": {"line1": "1 66871U 25281Z   25351.91668981 -.00032260  00000+0 -20742-3 0  9992", "line2": "2 66871  43.0009  90.4314 0001733 287.3144 316.4602 15.75068555  2269"}}, "geometry": {"type": "Point", "coordinates": [-60.24369089399129, -26.030866436483578]}}, {"type": "Feature", "properties": {"norad_id": 66872, "name": "STARLINK-36082", "group": "last-30-days", "lat": -27.12722869114941, "lon": -58.504537533853124, "alt_km": 346.28180893226545, "timestamp": "2025-12-18T07:01:53.342101+00:00", "meta": {"OBJECT_NAME": "STARLINK-36082", "OBJECT_ID": "2025-281AA", "EPOCH": "2025-12-17T22:00:01.999584", "MEAN_MOTION": 15.75061475, "ECCENTRICITY": 0.00016026, "INCLINATION": 43.0009, "RA_OF_ASC_NODE": 90.4266, "ARG_OF_PERICENTER": 268.0932, "MEAN_ANOMALY": 337.5864, "EPHEMERIS_TYPE": 0, "CLASSIFICATION_TYPE": "U", "NORAD_CAT_ID": 66872, "ELEMENT_SET_NO": 999, "REV_AT_EPOCH": 213, "BSTAR": -0.00010559521, "MEAN_MOTION_DOT": -0.00016682, "MEAN_MOTION_DDOT": 0}, "tle": {"line1": "1 66872U 25281AA  25351.91668981 -.00016682  00000+0 -10560-3 0  9990", "line2": "2 66872  43.0009  90.4266 0001602 268.0932 337.5864 15.75061475  2136"}}, "geometry": {"type": "Point", "coordinates": [-58.504537533853124, -27.12722869114941]}}, {"type": "Feature", "properties": {"norad_id": 66873, "name": "STARLINK-36128", "group": "last-30-days", "lat": -30.2885573922653, "lon": -53.058144696777944, "alt_km": 346.1055812017803, "timestamp": "2025-12-18T07:01:53.342110+00:00", "meta": {"OBJECT_NAME": "STARLINK-36128", "OBJECT_ID": "2025-281AB", "EPOCH": "2025-12-17T22:00:01.999584", "MEAN_MOTION": 15.75041209, "ECCENTRICITY": 0.00020454, "INCLINATION": 43.0009, "RA_OF_ASC_NODE": 90.4115, "ARG_OF_PERICENTER": 268.5408, "MEAN_ANOMALY": 342.8746, "EPHEMERIS_TYPE": 0, "CLASSIFICATION_TYPE": "U", "NORAD_CAT_ID": 66873, "ELEMENT_SET_NO": 999, "REV_AT_EPOCH": 226, "BSTAR": 0.00037950295, "MEAN_MOTION_DOT": 0.00058228, "MEAN_MOTION_DDOT": 0}, "tle": {"line1": "1 66873U 25281AB  25351.91668981  .00058228  00000+0  37950-3 0  9993", "line2": "2 66873  43.0009  90.4115 0002045 268.5408 342.8746 15.75041209  2260"}}, "geometry": {"type": "Point", "coordinates": [-53.058144696777944, -30.2885573922653]}}, {"type": "Feature", "properties": {"norad_id": 66874, "name": "STARLINK-36129", "group": "last-30-days", "lat": -28.20856420123631, "lon": -56.7200150191801, "alt_km": 346.22183797087655, "timestamp": "2025-12-18T07:01:53.342120+00:00", "meta": {"OBJECT_NAME": "STARLINK-36129", "OBJECT_ID": "2025-281AC", "EPOCH": "2025-12-17T22:00:01.999584", "MEAN_MOTION": 15.75052877, "ECCENTRICITY": 0.00021121, "INCLINATION": 43.001, "RA_OF_ASC_NODE": 90.4214, "ARG_OF_PERICENTER": 275.2571, "MEAN_ANOMALY": 332.3523, "EPHEMERIS_TYPE": 0, "CLASSIFICATION_TYPE": "U", "NORAD_CAT_ID": 66874, "ELEMENT_SET_NO": 999, "REV_AT_EPOCH": 226, "BSTAR": 6.59789e-07, "MEAN_MOTION_DOT": -3.77e-06, "MEAN_MOTION_DDOT": 0}, "tle": {"line1": "1 66874U 25281AC  25351.91668981 -.00000377  00000+0  65979-6 0  9992", "line2": "2 66874  43.0010  90.4214 0002112 275.2571 332.3523 15.75052877  2264"}}, "geometry": {"type": "Point", "coordinates": [-56.7200150191801, -28.20856420123631]}}, {"type": "Feature", "properties": {"norad_id": 66875, "name": "STARLINK-36053", "group": "last-30-days", "lat": -31.302667909967756, "lon": -51.14442167033115, "alt_km": 346.63952115372103, "timestamp": "2025-12-18T07:01:53.342132+00:00", "meta": {"OBJECT_NAME": "STARLINK-36053", "OBJECT_ID": "2025-281AD", "EPOCH": "2025-12-17T22:00:01.999584", "MEAN_MOTION": 15.75090602, "ECCENTRICITY": 0.000165, "INCLINATION": 43.0009, "RA_OF_ASC_NODE": 90.4061, "ARG_OF_PERICENTER": 279.7648, "MEAN_ANOMALY": 333.5895, "EPHEMERIS_TYPE": 0, "CLASSIFICATION_TYPE": "U", "NORAD_CAT_ID": 66875, "ELEMENT_SET_NO": 999, "REV_AT_EPOCH": 226, "BSTAR": -0.00050164826, "MEAN_MOTION_DOT": -0.0007701, "MEAN_MOTION_DDOT": 0}, "tle": {"line1": "1 66875U 25281AD  25351.91668981 -.00077010  00000+0 -50165-3 0  9990", "line2": "2 66875  43.0009  90.4061 0001650 279.7648 333.5895 15.75090602  2266"}}, "geometry": {"type": "Point", "coordinates": [-51.14442167033115, -31.302667909967756]}}, {"type": "Feature", "properties": {"norad_id": 66876, "name": "STARLINK-35702", "group": "last-30-days", "lat": -29.2014594189905, "lon": -55.01220165410983, "alt_km": 346.0652828422135, "timestamp": "2025-12-18T07:01:53.342142+00:00", "meta": {"OBJECT_NAME": "STARLINK-35702", "OBJECT_ID": "2025-281AE", "EPOCH": "2025-12-17T22:00:01.999584", "MEAN_MOTION": 15.74992243, "ECCENTRICITY": 0.00023335, "INCLINATION": 43.0007, "RA_OF_ASC_NODE": 90.4166, "ARG_OF_PERICENTER": 268.479, "MEAN_ANOMALY": 340.9831, "EPHEMERIS_TYPE": 0, "CLASSIFICATION_TYPE": "U", "NORAD_CAT_ID": 66876, "ELEMENT_SET_NO": 999, "REV_AT_EPOCH": 226, "BSTAR": 0.00040176925, "MEAN_MOTION_DOT": 0.00061566, "MEAN_MOTION_DDOT": 0}, "tle": {"line1": "1 66876U 25281AE  25351.91668981  .00061566  00000+0  40177-3 0  9990", "line2": "2 66876  43.0007  90.4166 0002333 268.4790 340.9831 15.74992243  2266"}}, "geometry": {"type": "Point", "coordinates": [-55.01220165410983, -29.2014594189905]}}]}